start=new Date('2023-02-19T00:00:00.000Z').valueOf();
sats=[{"MEAN_ANOMALY":"251.5969","GP_ID":"225924735","BSTAR":"0.00173460000000","DECAY_DATE":null,"ECCENTRICITY":"0.00007030","EPOCH":"2023-02-18T13:13:38.838144","MEAN_ELEMENT_THEORY":"SGP4","CLASSIFICATION_TYPE":"U","REV_AT_EPOCH":"4309","CENTER_NAME":"EARTH","COUNTRY_CODE":"US","SITE":"AFWTR","SEMIMAJOR_AXIS":"6917.781","OBJECT_ID":"2022-051E","TLE_LINE2":"2 52537  53.2143  95.1791 0000703 108.5099 251.5969 15.08872468 43098","LAUNCH_DATE":"2022-05-13","NORAD_CAT_ID":"52537","RCS_SIZE":"LARGE","INCLINATION":"53.2143","FILE":"3807124","ARG_OF_PERICENTER":"108.5099","MEAN_MOTION_DDOT":"0.0000000000000","OBJECT_NAME":"STARLINK-3897","TIME_SYSTEM":"UTC","REF_FRAME":"TEME","APOAPSIS":"540.132","MEAN_MOTION":"15.08872468","PERIAPSIS":"539.160","MEAN_MOTION_DOT":"0.00027451","TLE_LINE1":"1 52537U 22051E   23049.55114396  .00027451  00000-0  17346-2 0  9996","ELEMENT_SET_NO":"999","OBJECT_TYPE":"PAYLOAD","RA_OF_ASC_NODE":"95.1791","EPHEMERIS_TYPE":"0","PERIOD":"95.436"},{"GP_ID":"225924972","BSTAR":"0.00164780000000","MEAN_ANOMALY":"267.2010","DECAY_DATE":null,"EPOCH":"2023-02-18T13:03:02.053728","ECCENTRICITY":"0.00010260","MEAN_ELEMENT_THEORY":"SGP4","CLASSIFICATION_TYPE":"U","CENTER_NAME":"EARTH","REV_AT_EPOCH":"4309","COUNTRY_CODE":"US","SITE":"AFWTR","SEMIMAJOR_AXIS":"6917.877","OBJECT_ID":"2022-051F","LAUNCH_DATE":"2022-05-13","TLE_LINE2":"2 52538  53.2147  95.2071 0001026  92.9099 267.2010 15.08841000 43099","NORAD_CAT_ID":"52538","RCS_SIZE":"LARGE","INCLINATION":"53.2147","FILE":"3807124","ARG_OF_PERICENTER":"92.9099","MEAN_MOTION_DDOT":"0.0000000000000","OBJECT_NAME":"STARLINK-3933","REF_FRAME":"TEME","TIME_SYSTEM":"UTC","APOAPSIS":"540.452","PERIAPSIS":"539.033","MEAN_MOTION":"15.08841000","MEAN_MOTION_DOT":"0.00026035","TLE_LINE1":"1 52538U 22051F   23049.54377377  .00026035  00000-0  16478-2 0  9998","ELEMENT_SET_NO":"999","OBJECT_TYPE":"PAYLOAD","RA_OF_ASC_NODE":"95.2071","EPHEMERIS_TYPE":"0","PERIOD":"95.437"},{"TLE_LINE2":"2 52539  53.2170  95.4887 0001144 107.9000 252.2117 15.08829800 43088","LAUNCH_DATE":"2022-05-13","NORAD_CAT_ID":"52539","OBJECT_ID":"2022-051G","SEMIMAJOR_AXIS":"6917.912","SITE":"AFWTR","COUNTRY_CODE":"US","MEAN_ELEMENT_THEORY":"SGP4","CLASSIFICATION_TYPE":"U","CENTER_NAME":"EARTH","REV_AT_EPOCH":"4308","BSTAR":"0.00073682000000","GP_ID":"225923735","MEAN_ANOMALY":"252.2117","DECAY_DATE":null,"ECCENTRICITY":"0.00011440","EPOCH":"2023-02-18T11:32:56.810112","ELEMENT_SET_NO":"999","TLE_LINE1":"1 52539U 22051G   23049.48121308  .00011455  00000-0  73682-3 0  9994","OBJECT_TYPE":"PAYLOAD","EPHEMERIS_TYPE":"0","PERIOD":"95.438","RA_OF_ASC_NODE":"95.4887","MEAN_MOTION":"15.08829800","PERIAPSIS":"538.985","MEAN_MOTION_DOT":"0.00011455","REF_FRAME":"TEME","TIME_SYSTEM":"UTC","ARG_OF_PERICENTER":"107.9000","MEAN_MOTION_DDOT":"0.0000000000000","OBJECT_NAME":"STARLINK-3757","APOAPSIS":"540.568","INCLINATION":"53.2170","RCS_SIZE":"LARGE","FILE":"3807124"},{"ELEMENT_SET_NO":"999","TLE_LINE1":"1 52540U 22051H   23049.53272996 -.00004151  00000-0 -24297-3 0  9997","OBJECT_TYPE":"PAYLOAD","RA_OF_ASC_NODE":"95.2589","EPHEMERIS_TYPE":"0","PERIOD":"95.438","MEAN_MOTION":"15.08825637","PERIAPSIS":"539.096","MEAN_MOTION_DOT":"-0.00004151","MEAN_MOTION_DDOT":"0.0000000000000","ARG_OF_PERICENTER":"84.4929","OBJECT_NAME":"STARLINK-3940","TIME_SYSTEM":"UTC","REF_FRAME":"TEME","APOAPSIS":"540.482","RCS_SIZE":"LARGE","INCLINATION":"53.2159","FILE":"3807124","OBJECT_ID":"2022-051H","TLE_LINE2":"2 52540  53.2159  95.2589 0001002  84.4929 275.6177 15.08825637 43096","LAUNCH_DATE":"2022-05-13","NORAD_CAT_ID":"52540","COUNTRY_CODE":"US","SITE":"AFWTR","SEMIMAJOR_AXIS":"6917.924","MEAN_ELEMENT_THEORY":"SGP4","CLASSIFICATION_TYPE":"U","CENTER_NAME":"EARTH","REV_AT_EPOCH":"4309","GP_ID":"225923982","MEAN_ANOMALY":"275.6177","BSTAR":"-0.00024297000000","DECAY_DATE":null,"EPOCH":"2023-02-18T12:47:07.868544","ECCENTRICITY":"0.00010020"},{"FILE":"3807124","INCLINATION":"53.2164","RCS_SIZE":"LARGE","APOAPSIS":"540.472","REF_FRAME":"TEME","TIME_SYSTEM":"UTC","ARG_OF_PERICENTER":"99.8594","MEAN_MOTION_DDOT":"0.0000000000000","OBJECT_NAME":"STARLINK-3845","PERIAPSIS":"539.029","MEAN_MOTION":"15.08838341","MEAN_MOTION_DOT":"0.00004277","EPHEMERIS_TYPE":"0","PERIOD":"95.438","RA_OF_ASC_NODE":"100.3965","TLE_LINE1":"1 52541U 22051J   23049.50098931  .00004277  00000-0  28668-3 0  9993","ELEMENT_SET_NO":"999","OBJECT_TYPE":"PAYLOAD","DECAY_DATE":null,"EPOCH":"2023-02-18T12:01:25.476384","ECCENTRICITY":"0.00010430","MEAN_ANOMALY":"260.2516","GP_ID":"225925229","BSTAR":"0.00028668000000","CLASSIFICATION_TYPE":"U","CENTER_NAME":"EARTH","REV_AT_EPOCH":"4301","MEAN_ELEMENT_THEORY":"SGP4","SEMIMAJOR_AXIS":"6917.885","SITE":"AFWTR","COUNTRY_CODE":"US","TLE_LINE2":"2 52541  53.2164 100.3965 0001043  99.8594 260.2516 15.08838341 43017","LAUNCH_DATE":"2022-05-13","NORAD_CAT_ID":"52541","OBJECT_ID":"2022-051J"},{"GP_ID":"225957905","MEAN_ANOMALY":"249.2840","BSTAR":"0.00091257000000","DECAY_DATE":null,"EPOCH":"2023-02-18T14:17:13.405920","ECCENTRICITY":"0.00011990","MEAN_ELEMENT_THEORY":"SGP4","CLASSIFICATION_TYPE":"U","CENTER_NAME":"EARTH","REV_AT_EPOCH":"4317","SEMIMAJOR_AXIS":"6917.886","COUNTRY_CODE":"US","SITE":"AFWTR","TLE_LINE2":"2 52542  53.2142  94.9820 0001199 110.8280 249.2840 15.08838221 43171","NORAD_CAT_ID":"52542","LAUNCH_DATE":"2022-05-13","OBJECT_ID":"2022-051K","INCLINATION":"53.2142","RCS_SIZE":"LARGE","FILE":"3808492","REF_FRAME":"TEME","TIME_SYSTEM":"UTC","OBJECT_NAME":"STARLINK-3937","MEAN_MOTION_DDOT":"0.0000000000000","ARG_OF_PERICENTER":"110.8280","APOAPSIS":"540.580","MEAN_MOTION":"15.08838221","PERIAPSIS":"538.921","MEAN_MOTION_DOT":"0.00014265","ELEMENT_SET_NO":"999","TLE_LINE1":"1 52542U 22051K   23049.59529405  .00014265  00000-0  91257-3 0  9990","OBJECT_TYPE":"PAYLOAD","EPHEMERIS_TYPE":"0","PERIOD":"95.438","RA_OF_ASC_NODE":"94.9820"},{"APOAPSIS":"540.721","TIME_SYSTEM":"UTC","REF_FRAME":"TEME","OBJECT_NAME":"STARLINK-3926","MEAN_MOTION_DDOT":"0.0000000000000","ARG_OF_PERICENTER":"92.3205","FILE":"3807124","INCLINATION":"53.2170","RCS_SIZE":"LARGE","EPHEMERIS_TYPE":"0","PERIOD":"95.438","RA_OF_ASC_NODE":"95.8134","TLE_LINE1":"1 52543U 22051L   23049.40761294  .00012047  00000-0  77398-3 0  9991","ELEMENT_SET_NO":"999","OBJECT_TYPE":"PAYLOAD","PERIAPSIS":"538.842","MEAN_MOTION":"15.08828304","MEAN_MOTION_DOT":"0.00012047","CLASSIFICATION_TYPE":"U","CENTER_NAME":"EARTH","REV_AT_EPOCH":"4307","MEAN_ELEMENT_THEORY":"SGP4","DECAY_DATE":null,"EPOCH":"2023-02-18T09:46:57.758016","ECCENTRICITY":"0.00013580","GP_ID":"225924230","MEAN_ANOMALY":"267.7943","BSTAR":"0.00077398000000","LAUNCH_DATE":"2022-05-13","TLE_LINE2":"2 52543  53.2170  95.8134 0001358  92.3205 267.7943 15.08828304 43078","NORAD_CAT_ID":"52543","OBJECT_ID":"2022-051L","SEMIMAJOR_AXIS":"6917.916","COUNTRY_CODE":"US","SITE":"AFWTR"},{"REF_FRAME":"TEME","TIME_SYSTEM":"UTC","MEAN_MOTION_DDOT":"0.0000000000000","ARG_OF_PERICENTER":"10.5453","OBJECT_NAME":"STARLINK-3944","APOAPSIS":"542.528","INCLINATION":"53.2164","RCS_SIZE":"MEDIUM","FILE":"3807124","ELEMENT_SET_NO":"999","TLE_LINE1":"1 52544U 22051M   23049.55987060 -.00005175  00000-0 -30741-3 0  9996","OBJECT_TYPE":"PAYLOAD","EPHEMERIS_TYPE":"0","PERIOD":"95.439","RA_OF_ASC_NODE":"100.1381","PERIAPSIS":"537.138","MEAN_MOTION":"15.08811325","MEAN_MOTION_DOT":"-0.00005175","MEAN_ELEMENT_THEORY":"SGP4","CLASSIFICATION_TYPE":"U","REV_AT_EPOCH":"4302","CENTER_NAME":"EARTH","BSTAR":"-0.00030741000000","GP_ID":"225924477","MEAN_ANOMALY":"349.5620","DECAY_DATE":null,"EPOCH":"2023-02-18T13:26:12.819840","ECCENTRICITY":"0.00038950","NORAD_CAT_ID":"52544","TLE_LINE2":"2 52544  53.2164 100.1381 0003895  10.5453 349.5620 15.08811325 43022","LAUNCH_DATE":"2022-05-13","OBJECT_ID":"2022-051M","SEMIMAJOR_AXIS":"6917.968","SITE":"AFWTR","COUNTRY_CODE":"US"},{"MEAN_MOTION_DOT":"0.00026964","PERIAPSIS":"538.707","MEAN_MOTION":"15.08814412","PERIOD":"95.439","EPHEMERIS_TYPE":"0","RA_OF_ASC_NODE":"94.9490","OBJECT_TYPE":"PAYLOAD","TLE_LINE1":"1 52545U 22051N   23049.60266724  .00026964  00000-0  17070-2 0  9996","ELEMENT_SET_NO":"999","FILE":"3808492","INCLINATION":"53.2154","RCS_SIZE":"LARGE","APOAPSIS":"540.940","TIME_SYSTEM":"UTC","REF_FRAME":"TEME","MEAN_MOTION_DDOT":"0.0000000000000","OBJECT_NAME":"STARLINK-3939","ARG_OF_PERICENTER":"79.6013","SEMIMAJOR_AXIS":"6917.959","COUNTRY_CODE":"US","SITE":"AFWTR","TLE_LINE2":"2 52545  53.2154  94.9490 0001614  79.6013 280.5161 15.08814412 43178","NORAD_CAT_ID":"52545","LAUNCH_DATE":"2022-05-13","OBJECT_ID":"2022-051N","EPOCH":"2023-02-18T14:27:50.449536","ECCENTRICITY":"0.00016140","DECAY_DATE":null,"GP_ID":"225957892","BSTAR":"0.00170700000000","MEAN_ANOMALY":"280.5161","CENTER_NAME":"EARTH","REV_AT_EPOCH":"4317","CLASSIFICATION_TYPE":"U","MEAN_ELEMENT_THEORY":"SGP4"},{"DECAY_DATE":null,"ECCENTRICITY":"0.00012570","EPOCH":"2023-02-18T12:32:36.507264","GP_ID":"225924973","MEAN_ANOMALY":"263.0635","BSTAR":"0.00043376000000","CLASSIFICATION_TYPE":"U","REV_AT_EPOCH":"4309","CENTER_NAME":"EARTH","MEAN_ELEMENT_THEORY":"SGP4","SEMIMAJOR_AXIS":"6917.952","COUNTRY_CODE":"US","SITE":"AFWTR","NORAD_CAT_ID":"52546","TLE_LINE2":"2 52546  53.2146  95.2994 0001257  97.0500 263.0635 15.08816496 43098","LAUNCH_DATE":"2022-05-13","OBJECT_ID":"2022-051P","FILE":"3807124","INCLINATION":"53.2146","RCS_SIZE":"LARGE","APOAPSIS":"540.687","TIME_SYSTEM":"UTC","REF_FRAME":"TEME","OBJECT_NAME":"STARLINK-3948","MEAN_MOTION_DDOT":"0.0000000000000","ARG_OF_PERICENTER":"97.0500","MEAN_MOTION":"15.08816496","PERIAPSIS":"538.948","MEAN_MOTION_DOT":"0.00006618","EPHEMERIS_TYPE":"0","PERIOD":"95.439","RA_OF_ASC_NODE":"95.2994","ELEMENT_SET_NO":"999","TLE_LINE1":"1 52546U 22051P   23049.52264476  .00006618  00000-0  43376-3 0  9993","OBJECT_TYPE":"PAYLOAD"}];
